{
  "last_updated": "2026-07-21T06:00:02.658728",
  "satellites": {
    "98592": {
      "name": "DUTHSat-2",
      "norad_id": "98592",
      "tle": "1 64530U 25135C   26201.87101681  .00007803  00000-0  29160-3 0  9996\n2 64530  97.4644 317.7899 0006029  82.2460 277.9464 15.27619049 60073",
      "epoch": "2026-07-20T20:54:15.852384",
      "fetched_at": "2026-07-21T06:00:02.815249",
      "source": "satnogs"
    },
    "98530": {
      "name": "LAMARR",
      "norad_id": "98530",
      "tle": "1 66673U 25276H   26026.90917087  .00034524  00000-0  16680-2 0  9998\n2 66673  97.4301 102.8338 0007597 141.5941 218.5835 15.18529012  8972",
      "epoch": "2026-01-26T21:49:12.363168",
      "fetched_at": "2026-01-28T06:00:02.884758",
      "source": "satnogs",
      "note": "Using previous TLE (fetch/manual failed today)"
    },
    "98529": {
      "name": "DIRAC",
      "norad_id": "98529",
      "tle": "1 66681U 25276R   26026.63281774  .00024563  00000-0  11745-2 0  9993\n2 66681  97.4280 102.5712 0006320 148.4115 211.7500 15.18972786  8932",
      "epoch": "2026-01-26T15:11:15.452736",
      "fetched_at": "2026-01-28T06:00:02.937152",
      "source": "satnogs",
      "note": "Using previous TLE (fetch/manual failed today)"
    },
    "98518": {
      "name": "MICE-1",
      "norad_id": "98518",
      "tle": "1 66684U 25276U   26201.70285983  .00002254  00000-0  10971-3 0  9999\n2 66684  97.4255 274.7753 0004260 220.8658 139.2258 15.19395497 35508",
      "epoch": "2026-07-20T16:52:07.089312",
      "fetched_at": "2026-07-21T06:00:02.994940",
      "source": "satnogs"
    },
    "68416": {
      "name": "PeakSat",
      "norad_id": "68416",
      "tle": "1 68416U 26067A   26201.80451684  .00003486  00000-0  16577-3 0  9993\n2 68416  97.4565 159.9761 0003540 122.3248 237.8330 15.19845818 17054",
      "epoch": "2026-07-20T19:18:30.254976",
      "fetched_at": "2026-07-21T06:00:03.054406",
      "source": "satnogs"
    },
    "98370": {
      "name": "OptiSat",
      "norad_id": "98370",
      "tle": "1 69696U 69696    26089.46895426  .00000000  00000-0  00000-0 0 00004\n2 69696 097.4414 038.3720 0003145 156.7651 191.1423 15.18459822000011",
      "epoch": "2026-03-30T11:15:17.648064",
      "fetched_at": "2026-04-17T12:47:18.541523",
      "source": "manual"
    },
    "68468": {
      "name": "ERMIS-1",
      "norad_id": "68468",
      "tle": "1 68468U 26067BE  26201.87552420  .00005760  00000-0  28502-3 0  9995\n2 68468  97.4563 159.7420 0004933 315.6240  44.4598 15.18185102 17044",
      "epoch": "2026-07-20T21:00:45.290880",
      "fetched_at": "2026-07-21T06:00:03.118040",
      "source": "satnogs"
    },
    "68420": {
      "name": "ERMIS-2",
      "norad_id": "68420",
      "tle": "1 68420U 26067E   26201.85891838  .00006489  00000-0  30177-3 0  9990\n2 68420  97.4492 159.9614 0003479 101.8240 258.3385 15.20294087 17067",
      "epoch": "2026-07-20T20:36:50.548032",
      "fetched_at": "2026-07-21T06:00:03.176476",
      "source": "satnogs"
    },
    "98367": {
      "name": "ERMIS-3",
      "norad_id": "98367",
      "tle": "1 68425U 26067K   26201.84967593  .00003964  00000-0  19202-3 0  9997\n2 68425  97.4605 159.9781 0001798 135.8294 224.3084 15.19124806 17058",
      "epoch": "2026-07-20T20:23:32.000352",
      "fetched_at": "2026-07-21T06:00:03.232409",
      "source": "satnogs"
    },
    "69021": {
      "name": "Helios",
      "norad_id": "69021",
      "tle": "1 69021U 26100AT  26201.28164828  .00003706  00000-0  17323-3 0  9992\n2 69021  97.3980  98.4346 0003247 210.1422 149.9627 15.20397045 11835",
      "epoch": "2026-07-20T06:45:34.411392",
      "fetched_at": "2026-07-21T06:00:03.287334",
      "source": "satnogs"
    },
    "69020": {
      "name": "Selene",
      "norad_id": "69020",
      "tle": "1 69020U 26100AS  26201.48621861  .00002944  00000-0  13908-3 0  9996\n2 69020  97.3997  98.6380 0002949 198.3966 161.7163 15.20189880 11866",
      "epoch": "2026-07-20T11:40:09.287904",
      "fetched_at": "2026-07-21T06:00:03.344139",
      "source": "satnogs"
    }
  },
  "fetch_log": []
}